0 MIDAS 3 DEB
1 00188U 61018C   13284.16438863 -.00000008  00000-0 -32877-2 0  7661
2 00188 091.1627 000.9318 0115648 085.7708 298.4954 08.93788670704655
0 MIDAS 3 DEB
1 00188U 61018C   13286.18005640 -.00000030  00000-0 -10847-1 0  7676
2 00188 091.1619 001.0218 0115676 083.5570 304.1782 08.93788898704837
0 MIDAS 3 DEB
1 00188U 61018C   13288.19423995 -.00000043  00000-0 -15622-1 0  7687
2 00188 091.1626 001.1123 0115377 081.2871 305.1416 08.93789353705011
0 MIDAS 3 DEB
1 00188U 61018C   13290.20778478 -.00000045  00000-0 -16074-1 0  7696
2 00188 091.1620 001.2022 0115228 079.0434 304.0289 08.93789329705197
0 MIDAS 3 DEB
1 00188U 61018C   13293.11183251 -.00000021  00000-0 -79250-2 0  7700
2 00188 091.1615 001.3320 0115070 075.8030 288.2525 08.93788686705454
0 MIDAS 3 DEB
1 00188U 61018C   13295.13325053  .00000005  00000-0  12697-2 0  7715
2 00188 091.1624 001.4233 0115207 073.6243 312.4009 08.93788508705632
